NORAD_CAT_ID,OBJECT_NAME,OBJECT_TYPE,EPOCH,MEAN_MOTION,ECCENTRICITY,INCLINATION,RA_OF_ASC_NODE,ARG_OF_PERICENTER,MEAN_ANOMALY,BSTAR,MEAN_MOTION_DOT,MEAN_MOTION_DDOT,TLE_LINE0,TLE_LINE1,TLE_LINE2,SEMIMAJOR_AXIS,PERIOD,APOGEE,PERIGEE,DECAYED
56449.0,STARLINK-5993,PAYLOAD,2023-12-05 13:15:57,14.98337108,0.0003044,70.0008,65.1226,263.1061,96.9752,7.5084e-05,8.03e-06,0.0,0 STARLINK-5993,1 56449U 23064B   23339.55274692  .00000803  00000-0  75084-4 0  9992,2 56449  70.0008  65.1226 0003044 263.1061  96.9752 14.98337108 31643,6950.171,96.107,574.152,569.92,0.0
56449.0,STARLINK-5993,PAYLOAD,2023-12-06 13:17:58,14.98337218,0.000314,70.0007,62.5979,262.2105,97.8698,-0.00017186,-2.143e-05,0.0,0 STARLINK-5993,1 56449U 23064B   23340.55414588 -.00002143  00000-0 -17186-3 0  9993,2 56449  70.0007  62.5979 0003140 262.2105  97.8698 14.98337218 31791,6950.171,96.107,574.218,569.853,0.0
56449.0,STARLINK-5993,PAYLOAD,2023-12-07 13:19:59,14.98328789,0.0003252,70.0004,60.073,264.3076,95.7712,-7.6792e-05,-1.009e-05,0.0,0 STARLINK-5993,1 56449U 23064B   23341.55554534 -.00001009  00000-0 -76792-4 0  9999,2 56449  70.0004  60.0730 0003252 264.3076  95.7712 14.98328789 31944,6950.197,96.107,574.322,569.801,0.0
56449.0,STARLINK-5993,PAYLOAD,2023-12-08 13:21:59,14.98329557,0.0003096,70.001,57.5491,258.9488,101.1323,4.9608e-05,4.99e-06,0.0,0 STARLINK-5993,1 56449U 23064B   23342.55694113  .00000499  00000-0  49608-4 0  9994,2 56449  70.0010  57.5491 0003096 258.9488 101.1323 14.98329557 32099,6950.194,96.107,574.211,569.907,0.0
56449.0,STARLINK-5993,PAYLOAD,2023-12-09 13:24:00,14.98330387,0.0003282,70.0002,55.0228,266.5506,93.5278,5.6713e-05,5.84e-06,0.0,0 STARLINK-5993,1 56449U 23064B   23343.55833998  .00000584  00000-0  56713-4 0  9991,2 56449  70.0002  55.0228 0003282 266.5506  93.5278 14.98330387 32247,6950.192,96.107,574.338,569.776,0.0
56449.0,STARLINK-5993,PAYLOAD,2023-12-10 13:26:01,14.98330205,0.0003147,70.0007,52.4989,258.7274,101.3532,-3.3028e-05,-4.87e-06,0.0,0 STARLINK-5993,1 56449U 23064B   23344.55974182 -.00000487  00000-0 -33028-4 0  9991,2 56449  70.0007  52.4989 0003147 258.7274 101.3532 14.98330205 32398,6950.192,96.107,574.244,569.87,0.0
56449.0,STARLINK-5993,PAYLOAD,2023-12-10 15:02:09,14.9832987,0.0003211,70.0004,52.3301,262.646,97.4334,-3.7523e-05,-5.41e-06,0.0,0 STARLINK-5993,1 56449U 23064B   23344.62650221 -.00000541  00000-0 -37523-4 0  9999,2 56449  70.0004  52.3301 0003211 262.6460  97.4334 14.98329870 32767,6950.193,96.107,574.29,569.827,0.0
56449.0,STARLINK-5993,PAYLOAD,2023-12-11 13:28:03,14.98322973,0.0002905,70.0008,49.9735,260.866,99.217,-7.4991e-05,-9.87e-06,0.0,0 STARLINK-5993,1 56449U 23064B   23345.56114779 -.00000987  00000-0 -74991-4 0  9990,2 56449  70.0008  49.9735 0002905 260.8660  99.2170 14.98322973 32546,6950.215,96.107,574.099,570.061,0.0
56449.0,STARLINK-5993,PAYLOAD,2023-12-11 15:04:11,14.98324312,0.0003156,70.0,49.8048,266.107,93.9728,-6.2266e-05,-8.36e-06,0.0,0 STARLINK-5993,1 56449U 23064B   23345.62790666 -.00000836  00000-0 -62266-4 0  9997,2 56449  70.0000  49.8048 0003156 266.1070  93.9728 14.98324312 32917,6950.21,96.107,574.269,569.882,0.0
56449.0,STARLINK-5993,PAYLOAD,2023-12-12 11:53:55,14.98333016,0.0003058,70.0003,47.6173,273.8296,86.2513,3.0802e-05,2.75e-06,0.0,0 STARLINK-5993,1 56449U 23064B   23346.49577974  .00000275  00000-0  30802-4 0  9994,2 56449  70.0003  47.6173 0003058 273.8296  86.2513 14.98333016 33044,6950.184,96.107,574.174,569.923,0.0
56449.0,STARLINK-5993,PAYLOAD,2023-12-12 13:30:07,14.98278111,0.0003082,70.0005,47.4488,263.2172,96.8637,-0.00055464,-6.696e-05,0.0,0 STARLINK-5993,1 56449U 23064B   23346.56258765 -.00006696  00000-0 -55464-3 0  9991,2 56449  70.0005  47.4488 0003082 263.2172  96.8637 14.98278111 32694,6950.353,96.11,574.36,570.076,0.0
56449.0,STARLINK-5993,PAYLOAD,2023-12-13 11:55:58,14.98306632,0.0002505,70.0033,45.0962,216.051,144.048,-2.4161e-05,-3.81e-06,0.0,0 STARLINK-5993,1 56449U 23064B   23347.49721003 -.00000381  00000-0 -24161-4 0  9990,2 56449  70.0033  45.0962 0002505 216.0510 144.0480 14.98306632 33195,6950.265,96.108,573.871,570.389,0.0
56449.0,STARLINK-5993,PAYLOAD,2023-12-13 13:32:06,14.98315221,0.0002672,70.0016,44.9263,239.5505,120.539,2.073e-05,1.54e-06,0.0,0 STARLINK-5993,1 56449U 23064B   23347.56396383  .00000154  00000-0  20730-4 0  9991,2 56449  70.0016  44.9263 0002672 239.5505 120.5390 14.98315221 32841,6950.239,96.108,573.961,570.246,0.0
56449.0,STARLINK-5993,PAYLOAD,2023-12-14 11:57:57,14.98338508,0.0002742,70.0006,42.5677,254.5072,105.5785,0.00012489,1.398e-05,0.0,0 STARLINK-5993,1 56449U 23064B   23348.49858528  .00001398  00000-0  12489-3 0  9990,2 56449  70.0006  42.5677 0002742 254.5072 105.5785 14.98338508 33347,6950.167,96.106,573.937,570.126,0.0
56449.0,STARLINK-5993,PAYLOAD,2023-12-14 13:34:05,14.98338952,0.0002755,70.0005,42.3992,255.878,104.2073,0.00012462,1.395e-05,0.0,0 STARLINK-5993,1 56449U 23064B   23348.56534483  .00001395  00000-0  12462-3 0  9997,2 56449  70.0005  42.3992 0002755 255.8780 104.2073 14.98338952 32997,6950.165,96.106,573.945,570.115,0.0
56449.0,STARLINK-5993,PAYLOAD,2023-12-15 03:59:18,14.98394923,0.0003421,69.9998,40.8823,265.1017,94.9751,-0.00070073,-8.458e-05,0.0,0 STARLINK-5993,1 56449U 23064B   23349.16618124 -.00008458  00000-0 -70073-3 0  9990,2 56449  69.9998  40.8823 0003421 265.1017  94.9751 14.98394923 33448,6949.992,96.103,574.235,569.48,0.0
56449.0,STARLINK-5993,PAYLOAD,2023-12-15 11:59:58,14.98339828,0.0002708,70.0004,40.0431,253.3106,106.7756,0.0002046,2.35e-05,0.0,0 STARLINK-5993,1 56449U 23064B   23349.49997989  .00002350  00000-0  20460-3 0  9993,2 56449  70.0004  40.0431 0002708 253.3106 106.7756 14.98339828 33496,6950.162,96.106,573.91,570.145,0.0
56449.0,STARLINK-5993,PAYLOAD,2023-12-15 13:36:06,14.98338911,0.0002757,70.0001,39.8739,258.7936,101.2913,0.00021688,2.496e-05,0.0,0 STARLINK-5993,1 56449U 23064B   23349.56673984  .00002496  00000-0  21688-3 0  9991,2 56449  70.0001  39.8739 0002757 258.7936 101.2913 14.98338911 33143,6950.165,96.106,573.946,570.114,0.0
56449.0,STARLINK-5993,PAYLOAD,2023-12-16 12:01:59,14.98336463,0.0002488,70.0009,37.5188,250.5244,109.5647,-0.00011232,-1.433e-05,0.0,0 STARLINK-5993,1 56449U 23064B   23350.50138376 -.00001433  00000-0 -11232-3 0  9994,2 56449  70.0009  37.5188 0002488 250.5244 109.5647 14.98336463 33647,6950.173,96.107,573.767,570.309,0.0
56449.0,STARLINK-5993,PAYLOAD,2023-12-16 13:38:07,14.98335834,0.0002495,70.0009,37.3498,254.8996,105.1888,-0.00012071,-1.533e-05,0.0,0 STARLINK-5993,1 56449U 23064B   23350.56814441 -.00001533  00000-0 -12071-3 0  9997,2 56449  70.0009  37.3498 0002495 254.8996 105.1888 14.98335834 33299,6950.175,96.107,573.774,570.306,0.0
56449.0,STARLINK-5993,PAYLOAD,2023-12-17 04:03:19,14.98365048,0.0002396,70.0001,35.834,256.1213,103.968,-0.00062228,-7.516e-05,0.0,0 STARLINK-5993,1 56449U 23064B   23351.16897971 -.00007516  00000-0 -62228-3 0  9999,2 56449  70.0001  35.8340 0002396 256.1213 103.9680 14.98365048 33743,6950.085,96.105,573.615,570.284,0.0
56449.0,STARLINK-5993,PAYLOAD,2023-12-17 13:40:07,14.98360095,0.0002417,70.0002,34.824,256.8232,103.2658,-0.00056237,-6.802e-05,0.0,0 STARLINK-5993,1 56449U 23064B   23351.56953398 -.00006802  00000-0 -56237-3 0  9999,2 56449  70.0002  34.8240 0002417 256.8232 103.2658 14.98360095 33446,6950.1,96.105,573.645,570.285,0.0
56449.0,STARLINK-5993,PAYLOAD,2023-12-18 04:05:20,14.98334722,0.0002903,69.9995,33.3082,270.59,89.4927,4.7095e-05,4.69e-06,0.0,0 STARLINK-5993,1 56449U 23064B   23352.17037297  .00000469  00000-0  47095-4 0  9992,2 56449  69.9995  33.3082 0002903 270.5900  89.4927 14.98334722 33898,6950.178,96.107,574.061,570.026,0.0
56449.0,STARLINK-5993,PAYLOAD,2023-12-18 12:06:00,14.98338797,0.0002699,69.9999,32.4671,264.6655,95.4196,8.6667e-05,9.41e-06,0.0,0 STARLINK-5993,1 56449U 23064B   23352.50416765  .00000941  00000-0  86667-4 0  9993,2 56449  69.9999  32.4671 0002699 264.6655  95.4196 14.98338797 33586,6950.166,96.106,573.907,570.155,0.0
56449.0,STARLINK-5993,PAYLOAD,2023-12-19 04:07:21,14.9832531,0.0002333,70.0013,30.7855,241.225,118.8675,3.7481e-06,-4.8e-07,0.0,0 STARLINK-5993,1 56449U 23064B   23353.17177724 -.00000048  00000-0  37481-5 0  9996,2 56449  70.0013  30.7855 0002333 241.2250 118.8675 14.98325310 34049,6950.207,96.107,573.694,570.451,0.0
56449.0,STARLINK-5993,PAYLOAD,2023-12-19 12:08:02,14.98318686,0.0002429,70.0009,29.9433,250.0509,110.0388,-7.5555e-05,-9.94e-06,0.0,0 STARLINK-5993,1 56449U 23064B   23353.50558511 -.00000994  00000-0 -75555-4 0  9994,2 56449  70.0009  29.9433 0002429 250.0509 110.0388 14.98318686 34095,6950.228,96.108,573.781,570.405,0.0
56449.0,STARLINK-5993,PAYLOAD,2023-12-20 04:09:22,14.98329143,0.0002847,69.9998,28.2587,261.5724,98.5113,-0.00011161,-1.424e-05,0.0,0 STARLINK-5993,1 56449U 23064B   23354.17318065 -.00001424  00000-0 -11161-3 0  9997,2 56449  69.9998  28.2587 0002847 261.5724  98.5113 14.98329143 34198,6950.196,96.107,574.039,570.082,0.0
56449.0,STARLINK-5993,PAYLOAD,2023-12-20 12:10:02,14.98332399,0.0002924,69.9996,27.4171,262.2134,97.8694,-0.00010039,-1.291e-05,0.0,0 STARLINK-5993,1 56449U 23064B   23354.50697827 -.00001291  00000-0 -10039-3 0  9995,2 56449  69.9996  27.4171 0002924 262.2134  97.8694 14.98332399 33883,6950.185,96.107,574.083,570.018,0.0
56449.0,STARLINK-5993,PAYLOAD,2023-12-21 04:11:23,14.98329533,0.0002945,69.9996,25.733,264.3878,95.6945,9.6116e-05,1.054e-05,0.0,0 STARLINK-5993,1 56449U 23064B   23355.17457475  .00001054  00000-0  96116-4 0  9998,2 56449  69.9996  25.7330 0002945 264.3878  95.6945 14.98329533 34345,6950.194,96.107,574.106,570.013,0.0
56449.0,STARLINK-5993,PAYLOAD,2023-12-21 12:12:03,14.9833358,0.0002877,69.9997,24.8916,261.9484,98.1348,0.00013597,1.53e-05,0.0,0 STARLINK-5993,1 56449U 23064B   23355.50837078  .00001530  00000-0  13597-3 0  9996,2 56449  69.9997  24.8916 0002877 261.9484  98.1348 14.98333580 34034,6950.182,96.107,574.046,570.047,0.0
